TECHDEMOSAT-1 (TDS-1)   
1 40076U 14037H   26068.92236573  .00011104  00000+0  65800-3 0  9999
2 40076  98.3776  51.4583 0004745 234.8100 125.2683 15.11581991633227
STARLINK-4636           
1 53731U 22107AH  26068.89790396  .00028566  00000+0  16595-2 0  9998
2 53731  53.2130 252.5823 0005397 143.7657 216.3703 15.11900784194629
